STARLINK-36885          
1 68049U 26041K   26076.75002314  .00022866  00000+0  15305-3 0  9993
2 68049  53.1596  21.7630 0001372 115.5737 216.9106 15.75221504  3672
STARLINK-36945          
1 68050U 26041L   26076.87304909  .00215931  00000+0  10673-2 0  9992
2 68050  53.1596  21.0513 0000843  90.6386 269.4734 15.80936757  2513
STARLINK-35911          
1 68051U 26041M   26076.87155023  .00268561  00000+0  13186-2 0  9993
2 68051  53.1594  21.0414 0000922 352.8474   7.2535 15.80934471  2519
STARLINK-35808          
1 68052U 26041N   26076.87079672  .00211414  00000+0  10459-2 0  9994
2 68052  53.1595  21.0358 0001216 143.2548 216.8558 15.80929924  2519
STARLINK-36919          
1 68053U 26041P   26076.87004865  .00247910  00000+0  12202-2 0  9995
2 68053  53.1594  21.0301 0000940 351.3284   8.7722 15.80938051  2511
STARLINK-36924          
1 68054U 26041Q   26076.75002314  .00018421  00000+0  12420-3 0  9996
2 68054  53.1599  21.7140 0001118  79.4031 276.9577 15.75215565  3678
STARLINK-35998          
1 68055U 26041R   26076.86929869  .00270585  00000+0  13298-2 0  9996
2 68055  53.1595  21.0260 0001217 318.1350  41.9579 15.80907301  2514
STARLINK-36845          
1 68056U 26041S   26076.86779745  .00220647  00000+0  10896-2 0  9998
2 68056  53.1593  21.0151 0001357 124.8017 235.3134 15.80942224  2518
STARLINK-36954          
1 68057U 26041T   26076.75002314  .00055626  00000+0  36515-3 0  9998
2 68057  53.1596  21.7094 0001134 128.4791 229.7412 15.75207663  3676
STARLINK-36899          
1 68058U 26041U   26076.75002314  .00087264  00000+0  57026-3 0  9992
2 68058  53.1597  21.6602 0001104 103.6885 278.5461 15.75130580  3677
STARLINK-36917          
1 68059U 26041V   26076.86556230 -.00220005  00000+0 -11544-2 0  9994
2 68059  53.1593  21.0002 0001370 242.9505 117.1378 15.80594018  2516
STARLINK-36959          
1 68060U 26041W   26076.75002314  .00101949  00000+0  66314-3 0  9992
2 68060  53.1593  21.6069 0000948 112.4670 295.4182 15.75172977  3672
