CCSDS_OMM_VERS = 2.0
CREATION_DATE  = 
ORIGINATOR     = 

OBJECT_NAME    = STARLINK-36885
OBJECT_ID      = 2026-041K
CENTER_NAME    = EARTH
REF_FRAME      = TEME
TIME_SYSTEM    = UTC
MEAN_ELEMENT_THEORY = SGP/SGP4

EPOCH          = 2026-03-17T18:00:01.999296
MEAN_MOTION    = 15.75221504
ECCENTRICITY   = .0001372
INCLINATION    = 53.1596
RA_OF_ASC_NODE = 21.7630
ARG_OF_PERICENTER = 115.5737
MEAN_ANOMALY   = 216.9106

EPHEMERIS_TYPE = 0
CLASSIFICATION_TYPE = U
NORAD_CAT_ID   = 68049
ELEMENT_SET_NO = 999
REV_AT_EPOCH   = 367
BSTAR          = .15305E-3
MEAN_MOTION_DOT = .22866E-3
MEAN_MOTION_DDOT = 0

CCSDS_OMM_VERS = 2.0
CREATION_DATE  = 
ORIGINATOR     = 

OBJECT_NAME    = STARLINK-36945
OBJECT_ID      = 2026-041L
CENTER_NAME    = EARTH
REF_FRAME      = TEME
TIME_SYSTEM    = UTC
MEAN_ELEMENT_THEORY = SGP/SGP4

EPOCH          = 2026-03-17T20:57:11.441376
MEAN_MOTION    = 15.80936757
ECCENTRICITY   = .0000843
INCLINATION    = 53.1596
RA_OF_ASC_NODE = 21.0513
ARG_OF_PERICENTER = 90.6386
MEAN_ANOMALY   = 269.4734

EPHEMERIS_TYPE = 0
CLASSIFICATION_TYPE = U
NORAD_CAT_ID   = 68050
ELEMENT_SET_NO = 999
REV_AT_EPOCH   = 251
BSTAR          = .10673E-2
MEAN_MOTION_DOT = .215931E-2
MEAN_MOTION_DDOT = 0

CCSDS_OMM_VERS = 2.0
CREATION_DATE  = 
ORIGINATOR     = 

OBJECT_NAME    = STARLINK-35911
OBJECT_ID      = 2026-041M
CENTER_NAME    = EARTH
REF_FRAME      = TEME
TIME_SYSTEM    = UTC
MEAN_ELEMENT_THEORY = SGP/SGP4

EPOCH          = 2026-03-17T20:55:01.939872
MEAN_MOTION    = 15.80934471
ECCENTRICITY   = .0000922
INCLINATION    = 53.1594
RA_OF_ASC_NODE = 21.0414
ARG_OF_PERICENTER = 352.8474
MEAN_ANOMALY   = 7.2535

EPHEMERIS_TYPE = 0
CLASSIFICATION_TYPE = U
NORAD_CAT_ID   = 68051
ELEMENT_SET_NO = 999
REV_AT_EPOCH   = 251
BSTAR          = .13186E-2
MEAN_MOTION_DOT = .268561E-2
MEAN_MOTION_DDOT = 0

CCSDS_OMM_VERS = 2.0
CREATION_DATE  = 
ORIGINATOR     = 

OBJECT_NAME    = STARLINK-35808
OBJECT_ID      = 2026-041N
CENTER_NAME    = EARTH
REF_FRAME      = TEME
TIME_SYSTEM    = UTC
MEAN_ELEMENT_THEORY = SGP/SGP4

EPOCH          = 2026-03-17T20:53:56.836608
MEAN_MOTION    = 15.80929924
ECCENTRICITY   = .0001216
INCLINATION    = 53.1595
RA_OF_ASC_NODE = 21.0358
ARG_OF_PERICENTER = 143.2548
MEAN_ANOMALY   = 216.8558

EPHEMERIS_TYPE = 0
CLASSIFICATION_TYPE = U
NORAD_CAT_ID   = 68052
ELEMENT_SET_NO = 999
REV_AT_EPOCH   = 251
BSTAR          = .10459E-2
MEAN_MOTION_DOT = .211414E-2
MEAN_MOTION_DDOT = 0

CCSDS_OMM_VERS = 2.0
CREATION_DATE  = 
ORIGINATOR     = 

OBJECT_NAME    = STARLINK-36919
OBJECT_ID      = 2026-041P
CENTER_NAME    = EARTH
REF_FRAME      = TEME
TIME_SYSTEM    = UTC
MEAN_ELEMENT_THEORY = SGP/SGP4

EPOCH          = 2026-03-17T20:52:52.203360
MEAN_MOTION    = 15.80938051
ECCENTRICITY   = .000094
INCLINATION    = 53.1594
RA_OF_ASC_NODE = 21.0301
ARG_OF_PERICENTER = 351.3284
MEAN_ANOMALY   = 8.7722

EPHEMERIS_TYPE = 0
CLASSIFICATION_TYPE = U
NORAD_CAT_ID   = 68053
ELEMENT_SET_NO = 999
REV_AT_EPOCH   = 251
BSTAR          = .12202E-2
MEAN_MOTION_DOT = .24791E-2
MEAN_MOTION_DDOT = 0

CCSDS_OMM_VERS = 2.0
CREATION_DATE  = 
ORIGINATOR     = 

OBJECT_NAME    = STARLINK-36924
OBJECT_ID      = 2026-041Q
CENTER_NAME    = EARTH
REF_FRAME      = TEME
TIME_SYSTEM    = UTC
MEAN_ELEMENT_THEORY = SGP/SGP4

EPOCH          = 2026-03-17T18:00:01.999296
MEAN_MOTION    = 15.75215565
ECCENTRICITY   = .0001118
INCLINATION    = 53.1599
RA_OF_ASC_NODE = 21.7140
ARG_OF_PERICENTER = 79.4031
MEAN_ANOMALY   = 276.9577

EPHEMERIS_TYPE = 0
CLASSIFICATION_TYPE = U
NORAD_CAT_ID   = 68054
ELEMENT_SET_NO = 999
REV_AT_EPOCH   = 367
BSTAR          = .1242E-3
MEAN_MOTION_DOT = .18421E-3
MEAN_MOTION_DDOT = 0

CCSDS_OMM_VERS = 2.0
CREATION_DATE  = 
ORIGINATOR     = 

OBJECT_NAME    = STARLINK-35998
OBJECT_ID      = 2026-041R
CENTER_NAME    = EARTH
REF_FRAME      = TEME
TIME_SYSTEM    = UTC
MEAN_ELEMENT_THEORY = SGP/SGP4

EPOCH          = 2026-03-17T20:51:47.406816
MEAN_MOTION    = 15.80907301
ECCENTRICITY   = .0001217
INCLINATION    = 53.1595
RA_OF_ASC_NODE = 21.0260
ARG_OF_PERICENTER = 318.1350
MEAN_ANOMALY   = 41.9579

EPHEMERIS_TYPE = 0
CLASSIFICATION_TYPE = U
NORAD_CAT_ID   = 68055
ELEMENT_SET_NO = 999
REV_AT_EPOCH   = 251
BSTAR          = .13298E-2
MEAN_MOTION_DOT = .270585E-2
MEAN_MOTION_DDOT = 0

CCSDS_OMM_VERS = 2.0
CREATION_DATE  = 
ORIGINATOR     = 

OBJECT_NAME    = STARLINK-36845
OBJECT_ID      = 2026-041S
CENTER_NAME    = EARTH
REF_FRAME      = TEME
TIME_SYSTEM    = UTC
MEAN_ELEMENT_THEORY = SGP/SGP4

EPOCH          = 2026-03-17T20:49:37.699680
MEAN_MOTION    = 15.80942224
ECCENTRICITY   = .0001357
INCLINATION    = 53.1593
RA_OF_ASC_NODE = 21.0151
ARG_OF_PERICENTER = 124.8017
MEAN_ANOMALY   = 235.3134

EPHEMERIS_TYPE = 0
CLASSIFICATION_TYPE = U
NORAD_CAT_ID   = 68056
ELEMENT_SET_NO = 999
REV_AT_EPOCH   = 251
BSTAR          = .10896E-2
MEAN_MOTION_DOT = .220647E-2
MEAN_MOTION_DDOT = 0

CCSDS_OMM_VERS = 2.0
CREATION_DATE  = 
ORIGINATOR     = 

OBJECT_NAME    = STARLINK-36954
OBJECT_ID      = 2026-041T
CENTER_NAME    = EARTH
REF_FRAME      = TEME
TIME_SYSTEM    = UTC
MEAN_ELEMENT_THEORY = SGP/SGP4

EPOCH          = 2026-03-17T18:00:01.999296
MEAN_MOTION    = 15.75207663
ECCENTRICITY   = .0001134
INCLINATION    = 53.1596
RA_OF_ASC_NODE = 21.7094
ARG_OF_PERICENTER = 128.4791
MEAN_ANOMALY   = 229.7412

EPHEMERIS_TYPE = 0
CLASSIFICATION_TYPE = U
NORAD_CAT_ID   = 68057
ELEMENT_SET_NO = 999
REV_AT_EPOCH   = 367
BSTAR          = .36515E-3
MEAN_MOTION_DOT = .55626E-3
MEAN_MOTION_DDOT = 0

CCSDS_OMM_VERS = 2.0
CREATION_DATE  = 
ORIGINATOR     = 

OBJECT_NAME    = STARLINK-36899
OBJECT_ID      = 2026-041U
CENTER_NAME    = EARTH
REF_FRAME      = TEME
TIME_SYSTEM    = UTC
MEAN_ELEMENT_THEORY = SGP/SGP4

EPOCH          = 2026-03-17T18:00:01.999296
MEAN_MOTION    = 15.75130580
ECCENTRICITY   = .0001104
INCLINATION    = 53.1597
RA_OF_ASC_NODE = 21.6602
ARG_OF_PERICENTER = 103.6885
MEAN_ANOMALY   = 278.5461

EPHEMERIS_TYPE = 0
CLASSIFICATION_TYPE = U
NORAD_CAT_ID   = 68058
ELEMENT_SET_NO = 999
REV_AT_EPOCH   = 367
BSTAR          = .57026E-3
MEAN_MOTION_DOT = .87264E-3
MEAN_MOTION_DDOT = 0

CCSDS_OMM_VERS = 2.0
CREATION_DATE  = 
ORIGINATOR     = 

OBJECT_NAME    = STARLINK-36917
OBJECT_ID      = 2026-041V
CENTER_NAME    = EARTH
REF_FRAME      = TEME
TIME_SYSTEM    = UTC
MEAN_ELEMENT_THEORY = SGP/SGP4

EPOCH          = 2026-03-17T20:46:24.582720
MEAN_MOTION    = 15.80594018
ECCENTRICITY   = .000137
INCLINATION    = 53.1593
RA_OF_ASC_NODE = 21.0002
ARG_OF_PERICENTER = 242.9505
MEAN_ANOMALY   = 117.1378

EPHEMERIS_TYPE = 0
CLASSIFICATION_TYPE = U
NORAD_CAT_ID   = 68059
ELEMENT_SET_NO = 999
REV_AT_EPOCH   = 251
BSTAR          = -.11544E-2
MEAN_MOTION_DOT = -.220005E-2
MEAN_MOTION_DDOT = 0

CCSDS_OMM_VERS = 2.0
CREATION_DATE  = 
ORIGINATOR     = 

OBJECT_NAME    = STARLINK-36959
OBJECT_ID      = 2026-041W
CENTER_NAME    = EARTH
REF_FRAME      = TEME
TIME_SYSTEM    = UTC
MEAN_ELEMENT_THEORY = SGP/SGP4

EPOCH          = 2026-03-17T18:00:01.999296
MEAN_MOTION    = 15.75172977
ECCENTRICITY   = .0000948
INCLINATION    = 53.1593
RA_OF_ASC_NODE = 21.6069
ARG_OF_PERICENTER = 112.4670
MEAN_ANOMALY   = 295.4182

EPHEMERIS_TYPE = 0
CLASSIFICATION_TYPE = U
NORAD_CAT_ID   = 68060
ELEMENT_SET_NO = 999
REV_AT_EPOCH   = 367
BSTAR          = .66314E-3
MEAN_MOTION_DOT = .101949E-2
MEAN_MOTION_DDOT = 0

